1 48218U 21031J   21116.83335648  .00026421  00000-0  70110-3 0  9998
2 48218  87.3976 312.8605 0004003 298.1919  82.4203 15.38168751   134
1 48218U 21031J   21116.83335648  .00026421  00000-0  70110-3 0  9998
2 48218  87.3976 312.8605 0004003 298.1919  82.4203 15.38168751   134
1 48218U 21031J   21117.58334491 -.00025984  00000-0 -69558-3 0  9995
2 48218  87.3978 312.5949 0003866 292.5885 278.1398 15.38213646  1538
1 48218U 21031J   21117.83334491  .00021853  00000-0  57986-3 0  9994
2 48218  87.3977 312.5048 0003914 292.1393 222.0128 15.38176819   292
1 48218U 21031J   21118.25001157 -.00031656  00000-0 -84790-3 0  9998
2 48218  87.3978 312.3578 0003793 290.1568   9.6646 15.38210099  1638
1 48218U 21031J   21118.83339120  .00030668  00000-0  81316-3 0  9997
2 48218  87.3981 312.1490 0003882 286.6163   1.4302 15.38183021  1726
1 48218U 21031J   21118.83339120  .00030668  00000-0  81316-3 0  9997
2 48218  87.3981 312.1490 0003882 286.6163   1.4302 15.38183021   444
1 48218U 21031J   21119.33335648  .00043976  00000-0  11646-2 0  9998
2 48218  87.3979 311.9719 0003737 282.6689 252.0205 15.38181888  1761
1 48218U 21031J   21119.91667824  .00072940  00000-0  19255-2 0  9993
2 48218  87.3980 311.7631 0003816 278.6852 243.9151 15.38175508  1782
1 48218U 21031J   21120.50001157  .00038046  00000-0  10074-2 0  9990
2 48218  87.3984 311.5571 0003735 272.6819 237.8883 15.38205298   709
1 48218U 21031J   21120.58334491 -.00032280  00000-0 -86379-3 0  9996
2 48218  87.3984 311.5270 0003805 272.0428 339.6585 15.38240962  1880
1 48218U 21031J   21120.83334491  .00034322  00000-0  90935-3 0  9994
2 48218  87.3986 311.4370 0003812 271.9957 283.1530 15.38196929   756
1 48218U 21031J   21120.91667824  .00065574  00000-0  17319-2 0  9999
2 48218  87.3986 311.4073 0003769 271.5697  24.7204 15.38188333  1932
1 48218U 21031J   21121.50002315  .00031982  00000-0  84694-3 0  9990
2 48218  87.3987 311.2015 0003812 266.6467  17.6982 15.38218619   851
1 48218U 21031J   21121.58334491 -.00034220  00000-0 -91554-3 0  9994
2 48218  87.3987 311.1715 0003854 266.8061 118.6104 15.38251437  2041
1 48218U 21031J   21121.91670139  .00069363  00000-0  18305-2 0  9999
2 48218  87.3987 311.0519 0003816 265.5846 164.5604 15.38198932  2097
1 48218U 21031J   21122.16667824 -.00054907  00000-0 -14723-2 0  9994
2 48218  87.3987 310.9641 0003695 263.6183 109.7909 15.38250845   953
1 48218U 21031J   21122.50001157  .00026156  00000-0  69285-3 0  9990
2 48218  87.3986 310.8461 0003791 260.5533 157.4355 15.38224388  1008
1 48218U 21031J   21122.58335648 -.00043112  00000-0 -11544-2 0  9990
2 48218  87.3987 310.8160 0003843 259.8195 259.3665 15.38253684  1779
1 48218U 21031J   21122.83335648  .00042956  00000-0  11370-2 0  9998
2 48218  87.3987 310.7263 0003896 258.8226 203.8202 15.38200276  1055
1 48218U 21031J   21122.91667824  .00073630  00000-0  19424-2 0  9992
2 48218  87.3987 310.6966 0003849 258.5687 305.1524 15.38194046  1757
1 48218U 21031J   21123.50001157  .00026038  00000-0  68965-3 0  9994
2 48218  87.3988 310.4907 0003863 252.1874 299.5357 15.38226778  1168
1 48218U 21031J   21123.58335648 -.00040039  00000-0 -10716-2 0  9996
2 48218  87.3988 310.4606 0003941 252.2485  40.6752 15.38257809  1758
1 48218U 21031J   21123.83334491  .00041615  00000-0  11014-2 0  9990
2 48218  87.3989 310.3708 0003896 251.8936 344.4274 15.38207435  1750
1 48218U 21031J   21124.16667824 -.00054692  00000-0 -14658-2 0  9994
2 48218  87.3990 310.2534 0003867 249.0887  31.8006 15.38264758  1267
1 48218U 21031J   21124.50001157  .00020432  00000-0  54115-3 0  9999
2 48218  87.3988 310.1354 0003973 246.7638  78.7170 15.38235432  1314
1 48218U 21031J   21124.58334491 -.00043503  00000-0 -11645-2 0  9993
2 48218  87.3988 310.1054 0003981 246.9029 179.7163 15.38264020  1764
1 48218U 21031J   21124.66667824 -.00059387  00000-0 -15924-2 0  9992
2 48218  87.3987 310.0752 0004007 246.6378 281.1323 15.38266313  1348
1 48218U 21031J   21124.91667824  .00065933  00000-0  17402-2 0  9995
2 48218  87.3986 309.9859 0003941 245.6073 225.6232 15.38207045  1810
1 48218U 21031J   21125.16674769 -.00053115  00000-0 -14233-2 0  9999
2 48218  87.3985 309.8982 0003887 243.1187 171.9238 15.38264391  1415
1 48218U 21031J   21125.50001157  .00016636  00000-0  44049-3 0  9996
2 48218  87.3984 309.7800 0004013 240.8021 218.4516 15.38244038  1822
1 48218U 21031J   21125.50001157  .00016636  00000-0  44049-3 0  9996
2 48218  87.3984 309.7800 0004013 240.8021 218.4516 15.38244038  1462
1 48218U 21031J   21125.83334491  .00049497  00000-0  13087-2 0  9990
2 48218  87.3982 309.6603 0004110 239.9468 263.9146 15.38211111  1529
1 48218U 21031J   21125.91668981  .00066330  00000-0  17504-2 0  9996
2 48218  87.3983 309.6306 0004076 239.2464   5.8239 15.38210282  1771
1 48218U 21031J   21126.58334491 -.00049595  00000-0 -13280-2 0  9999
2 48218  87.3981 309.3945 0004249 233.9136 100.2622 15.38272941  1758
1 48218U 21031J   21126.58334491 -.00049595  00000-0 -13280-2 0  9999
2 48218  87.3981 309.3945 0004249 233.9136 100.2622 15.38272941  1635
1 48218U 21031J   21126.91667824  .00062208  00000-0  16421-2 0  9999
2 48218  87.3981 309.2751 0004195 232.2256 146.5678 15.38215684  1819
1 48218U 21031J   21127.16667824 -.00056559  00000-0 -15158-2 0  9997
2 48218  87.3982 309.1875 0004199 229.8750  92.3552 15.38270712  1723
1 48218U 21031J   21127.58334491 -.00050555  00000-0 -13537-2 0  9993
2 48218  87.3980 309.0391 0004323 228.2401 239.7357 15.38276250  1811
1 48218U 21031J   21127.83334491  .00046207  00000-0  12218-2 0  9993
2 48218  87.3979 308.9494 0004293 227.0490 184.4015 15.38219357  1825
1 48218U 21031J   21127.91668981  .00063456  00000-0  16747-2 0  9992
2 48218  87.3978 308.9198 0004277 226.8946 285.7677 15.38217085  1869
1 48218U 21031J   21128.33334491  .00058027  00000-0  15322-2 0  9991
2 48218  87.3977 308.7730 0004329 223.6104  74.7604 15.38220996  1903
1 48218U 21031J   21128.83349537  .00054648  00000-0  14435-2 0  9992
2 48218  87.3975 308.5938 0004460 222.4648 323.6415 15.38221249  1981
1 48218U 21031J   21128.91667824  .00060914  00000-0  16076-2 0  9999
2 48218  87.3976 308.5642 0004451 221.6990  64.7212 15.38225998  1809
1 48218U 21031J   21129.16668981 -.00056667  00000-0 -15182-2 0  9991
2 48218  87.3974 308.4765 0004456 218.6508  11.2793 15.38279716  2032
1 48218U 21031J   21129.25002315  .00001714  00000-0  44401-4 0  9993
2 48218  87.3974 308.4471 0004483 217.6142 113.4809 15.38247123  1768
1 48218U 21031J   21129.50001157  .00002321  00000-0  60493-4 0  9998
2 48218  87.3974 308.3581 0004657 216.9608  57.5115 15.38262725  2080
1 48218U 21031J   21129.58334491 -.00054476  00000-0 -14587-2 0  9997
2 48218  87.3974 308.3279 0004677 217.4409 158.1800 15.38287645  1784
1 48218U 21031J   21129.91667824  .00062552  00000-0  16503-2 0  9995
2 48218  87.3976 308.2084 0004642 215.4920 204.7589 15.38229184  1783
1 48218U 21031J   21130.58334491 -.00054654  00000-0 -14632-2 0  9998
2 48218  87.3977 307.9723 0004812 211.8700 297.5950 15.38293407  1810
1 48218U 21031J   21130.83334491 -.00201627  00000-0 -54920-2 0  9994
2 48218  87.3979 307.8826 0004654 210.8143 242.1167 15.38327421  2281
1 48218U 21031J   21130.91667824 -.00586366  00000-0 -16704-1 0  9995
2 48218  87.3978 307.8528 0004842 207.3778 346.6816 15.38460020  1804
1 48218U 21031J   21131.16671296 -.01485715  00000-0 -43559-1 0  9996
2 48218  87.3981 307.7651 0004758 207.4836 290.2660 15.38334745  2341
1 48218U 21031J   21131.25001157 -.01442829  00000-0 -42571-1 0  9991
2 48218  87.3983 307.7357 0005020 206.7490  31.9484 15.38046973  1769
1 48218U 21031J   21131.83334491 -.01391172  00000-0 -43402-1 0  9993
2 48218  87.3990 307.5272 0005096 204.5299  19.9183 15.36216090  2442
1 48218U 21031J   21131.91667824 -.01399966  00000-0 -44049-1 0  9998
2 48218  87.3992 307.4976 0005180 206.7629 118.1874 15.35970127  1826
1 48218U 21031J   21132.16667824 -.01489104  00000-0 -48265-1 0  9994
2 48218  87.3994 307.4104 0005243 202.5442  63.4666 15.35237348  2494
1 48218U 21031J   21132.58334491 -.01493416  00000-0 -50411-1 0  9998
2 48218  87.4000 307.2626 0005232 203.8239 202.4576 15.33974531  2558
1 48218U 21031J   21132.66668981 -.01476470  00000-0 -50202-1 0  9990
2 48218  87.4001 307.2326 0005234 201.3693 304.8122 15.33708726  1762
1 48218U 21031J   21132.83334491 -.01383967  00000-0 -47596-1 0  9995
2 48218  87.4004 307.1737 0005367 202.0034 143.5388 15.33144303  1794
1 48218U 21031J   21132.83334491 -.01383967  00000-0 -47596-1 0  9995
2 48218  87.4004 307.1737 0005367 202.0034 143.5388 15.33144303  2593
1 48218U 21031J   21133.16667824 -.01468826  00000-0 -52408-1 0  9997
2 48218  87.4011 307.0574 0005409 199.3012 184.1304 15.32163551  2640
1 48218U 21031J   21133.50001157 -.01435136  00000-0 -52758-1 0  9992
2 48218  87.4017 306.9402 0005395 198.4632 221.6299 15.31135017  1897
1 48218U 21031J   21133.83334491 -.00882188  00000-0 -32998-1 0  9994
2 48218  87.4023 306.8219 0005334 195.5680 259.9567 15.30099841  2743
1 48218U 21031J   21134.16667824 -.01466268  00000-0 -56858-1 0  9999
2 48218  87.4028 306.7062 0005442 192.7861 297.2112 15.29486329  2800
1 48218U 21031J   21134.50001157 -.01437926  00000-0 -57455-1 0  9991
2 48218  87.4033 306.5896 0005637 191.3492 332.0954 15.28446543  1792
1 48218U 21031J   21134.91667824 -.01397614  00000-0 -57984-1 0  9991
2 48218  87.4039 306.4427 0005790 191.5985 101.9284 15.27122280  2918
1 48218U 21031J   21135.08334491 -.01482181  00000-0 -62750-1 0  9992
2 48218  87.4041 306.3853 0005533 188.6032 300.4002 15.26656660  2948
1 48218U 21031J   21135.58335648 -.01508249  00000-0 -65956-1 0  9997
2 48218  87.4048 306.2112 0005852 190.1724 163.5096 15.25113639  1787
1 48218U 21031J   21135.91667824 -.01391251  00000-0 -63344-1 0  9990
2 48218  87.4053 306.0947 0005811 188.1596 193.6762 15.24025728  1768
1 48218U 21031J   21136.58334491 -.01503180  00000-0 -72075-1 0  9992
2 48218  87.4062 305.8645 0005933 184.9967 249.5138 15.22012069  1761
